NORAD_CAT_ID,OBJECT_NAME,OBJECT_TYPE,EPOCH,MEAN_MOTION,ECCENTRICITY,INCLINATION,RA_OF_ASC_NODE,ARG_OF_PERICENTER,MEAN_ANOMALY,BSTAR,MEAN_MOTION_DOT,MEAN_MOTION_DDOT,TLE_LINE0,TLE_LINE1,TLE_LINE2,SEMIMAJOR_AXIS,PERIOD,APOGEE,PERIGEE,DECAYED
52690.0,STARLINK-4035,PAYLOAD,2024-01-21 06:42:12,15.08840296,0.0001723,53.2184,38.5406,102.5646,257.5539,3.3748e-05,2.49e-06,0.0,0 STARLINK-4035,1 52690U 22053AL  24021.27930846  .00000249  00000-0  33748-4 0  9996,2 52690  53.2184  38.5406 0001723 102.5646 257.5539 15.08840296 93607,6917.879,95.438,540.936,538.553,0.0
52690.0,STARLINK-4035,PAYLOAD,2024-01-21 09:52:58,15.08845164,0.0001758,53.2191,37.9448,99.1834,260.9357,7.6478e-05,9.29e-06,0.0,0 STARLINK-4035,1 52690U 22053AL  24021.41178448  .00000929  00000-0  76478-4 0  9996,2 52690  53.2191  37.9448 0001758  99.1834 260.9357 15.08845164 93258,6917.865,95.437,540.946,538.513,0.0
52690.0,STARLINK-4035,PAYLOAD,2024-01-22 06:32:59,15.08836157,0.0001654,53.2185,34.0835,100.5256,259.5923,7.981e-05,9.82e-06,0.0,0 STARLINK-4035,1 52690U 22053AL  24022.27291354  .00000982  00000-0  79810-4 0  9995,2 52690  53.2185  34.0835 0001654 100.5256 259.5923 15.08836157 93759,6917.892,95.438,540.901,538.613,0.0
52690.0,STARLINK-4035,PAYLOAD,2024-01-22 09:43:45,15.08840156,0.0001616,53.2185,33.4861,100.3531,259.7643,0.00011602,1.559e-05,0.0,0 STARLINK-4035,1 52690U 22053AL  24022.40538912  .00001559  00000-0  11602-3 0  9999,2 52690  53.2185  33.4861 0001616 100.3531 259.7643 15.08840156 93400,6917.88,95.438,540.863,538.627,0.0
52690.0,STARLINK-4035,PAYLOAD,2024-01-23 06:23:46,15.08839941,0.0001855,53.2199,29.6184,101.2688,258.8513,2.5757e-05,1.22e-06,0.0,0 STARLINK-4035,1 52690U 22053AL  24023.26651393  .00000122  00000-0  25757-4 0  9995,2 52690  53.2199  29.6184 0001855 101.2688 258.8513 15.08839941 93909,6917.881,95.438,541.029,538.462,0.0
52690.0,STARLINK-4035,PAYLOAD,2024-01-23 07:59:09,15.08845115,0.0001581,53.219,29.3263,93.5966,266.5207,3.1396e-05,2.12e-06,0.0,0 STARLINK-4035,1 52690U 22053AL  24023.33275038  .00000212  00000-0  31396-4 0  9997,2 52690  53.2190  29.3263 0001581  93.5966 266.5207 15.08845115 93910,6917.865,95.437,540.823,538.636,0.0
52690.0,STARLINK-4035,PAYLOAD,2024-01-24 06:14:33,15.08845613,0.0001748,53.2191,25.1653,82.1289,277.9902,9.2017e-05,1.177e-05,0.0,0 STARLINK-4035,1 52690U 22053AL  24024.26011084  .00001177  00000-0  92017-4 0  9997,2 52690  53.2191  25.1653 0001748  82.1289 277.9902 15.08845613 93680,6917.863,95.437,540.937,538.519,0.0
52690.0,STARLINK-4035,PAYLOAD,2024-01-25 02:54:34,15.08830868,0.000171,53.219,21.297,88.5707,271.5481,0.00021836,3.188e-05,0.0,0 STARLINK-4035,1 52690U 22053AL  24025.12123353  .00003188  00000-0  21836-3 0  9990,2 52690  53.2190  21.2970 0001710  88.5707 271.5481 15.08830868 93815,6917.908,95.438,540.956,538.59,0.0
52690.0,STARLINK-4035,PAYLOAD,2024-01-25 06:05:20,15.08845951,0.0001654,53.2187,20.7022,81.8204,278.2976,2.9189e-05,1.77e-06,0.0,0 STARLINK-4035,1 52690U 22053AL  24025.25371150  .00000177  00000-0  29189-4 0  9999,2 52690  53.2187  20.7022 0001654  81.8204 278.2976 15.08845951 93832,6917.862,95.437,540.871,538.583,0.0
52690.0,STARLINK-4035,PAYLOAD,2024-01-26 02:45:21,15.08838945,0.0001893,53.2198,16.8372,109.1784,250.9413,2.1638e-05,5.6e-07,0.0,0 STARLINK-4035,1 52690U 22053AL  24026.11483374  .00000056  00000-0  21638-4 0  9994,2 52690  53.2198  16.8372 0001893 109.1784 250.9413 15.08838945 93962,6917.884,95.438,541.058,538.439,0.0
52690.0,STARLINK-4035,PAYLOAD,2024-01-26 05:56:07,15.08840068,0.000188,53.2201,16.2424,110.4303,249.6892,2.8109e-05,1.59e-06,0.0,0 STARLINK-4035,1 52690U 22053AL  24026.24731350  .00000159  00000-0  28109-4 0  9992,2 52690  53.2201  16.2424 0001880 110.4303 249.6892 15.08840068 94356,6917.88,95.438,541.046,538.445,0.0
52690.0,STARLINK-4035,PAYLOAD,2024-01-27 04:11:31,15.0883864,0.0001815,53.2202,12.0797,109.3793,250.7395,5.8394e-05,6.41e-06,0.0,0 STARLINK-4035,1 52690U 22053AL  24027.17467401  .00000641  00000-0  58394-4 0  9993,2 52690  53.2202  12.0797 0001815 109.3793 250.7395 15.08838640 94121,6917.885,95.438,541.005,538.494,0.0
52690.0,STARLINK-4035,PAYLOAD,2024-01-27 08:57:40,15.08843936,0.0001714,53.2192,11.1845,110.169,249.9486,6.3128e-05,7.17e-06,0.0,0 STARLINK-4035,1 52690U 22053AL  24027.37339059  .00000717  00000-0  63128-4 0  9997,2 52690  53.2192  11.1845 0001714 110.1690 249.9486 15.08843936 94526,6917.868,95.437,540.919,538.548,0.0
52690.0,STARLINK-4035,PAYLOAD,2024-01-28 05:37:43,15.08790284,0.0001882,53.2194,7.3164,99.4741,260.6464,0.00079159,0.00012316,0.0,0 STARLINK-4035,1 52690U 22053AL  24028.23452749  .00012316  00000-0  79159-3 0  9993,2 52690  53.2194   7.3164 0001882  99.4741 260.6464 15.08790284 94287,6918.032,95.441,541.199,538.595,0.0
52690.0,STARLINK-4035,PAYLOAD,2024-01-28 21:31:33,15.08840685,0.0001819,53.2202,4.3484,100.4713,259.6484,9.6678e-06,-1.34e-06,0.0,0 STARLINK-4035,1 52690U 22053AL  24028.89691873 -.00000134  00000-0  96678-5 0  9991,2 52690  53.2202   4.3484 0001819 100.4713 259.6484 15.08840685 94754,6917.878,95.438,541.002,538.485,0.0
52690.0,STARLINK-4035,PAYLOAD,2024-01-29 03:53:06,15.08840612,0.000186,53.2201,3.1569,106.5119,253.6078,9.3665e-06,-1.39e-06,0.0,0 STARLINK-4035,1 52690U 22053AL  24029.16187853 -.00000139  00000-0  93665-5 0  9998,2 52690  53.2201   3.1569 0001860 106.5119 253.6078 15.08840612 94424,6917.879,95.438,541.03,538.457,0.0
52690.0,STARLINK-4035,PAYLOAD,2024-01-30 06:54:39,15.08844673,0.0001693,53.2194,358.1038,97.8062,262.3123,7.2658e-05,8.69e-06,0.0,0 STARLINK-4035,1 52690U 22053AL  24030.28795508  .00000869  00000-0  72658-4 0  9992,2 52690  53.2194 358.1038 0001693  97.8062 262.3123 15.08844673 94599,6917.866,95.437,540.902,538.56,0.0
52690.0,STARLINK-4035,PAYLOAD,2024-01-30 21:13:08,15.08835977,0.0001673,53.2187,355.4257,110.9005,249.2166,1.1867e-05,-9.9e-07,0.0,0 STARLINK-4035,1 52690U 22053AL  24030.88412226 -.00000099  00000-0  11867-4 0  9992,2 52690  53.2187 355.4257 0001673 110.9005 249.2166 15.08835977 95056,6917.893,95.438,540.915,538.6,0.0
52690.0,STARLINK-4035,PAYLOAD,2024-01-31 03:34:40,15.08837887,0.000167,53.2186,354.2371,102.9308,257.1871,3.6302e-05,2.9e-06,0.0,0 STARLINK-4035,1 52690U 22053AL  24031.14908109  .00000290  00000-0  36302-4 0  9995,2 52690  53.2186 354.2371 0001670 102.9308 257.1871 15.08837887 94729,6917.887,95.438,540.907,538.597,0.0
52690.0,STARLINK-4035,PAYLOAD,2024-01-31 05:10:03,15.08840317,0.0001634,53.2191,353.9406,90.4382,269.6798,6.7401e-05,7.85e-06,0.0,0 STARLINK-4035,1 52690U 22053AL  24031.21531984  .00000785  00000-0  67401-4 0  9999,2 52690  53.2191 353.9406 0001634  90.4382 269.6798 15.08840317 95104,6917.879,95.438,540.875,538.614,0.0
52690.0,STARLINK-4035,PAYLOAD,2024-02-01 03:25:27,15.08839691,0.0001689,53.2197,349.7804,83.5183,276.6002,-1.1559e-05,-4.72e-06,0.0,0 STARLINK-4035,1 52690U 22053AL  24032.14268498 -.00000472  00000-0 -11559-4 0  9997,2 52690  53.2197 349.7804 0001689  83.5183 276.6002 15.08839691 95241,6917.881,95.438,540.915,538.578,0.0
52690.0,STARLINK-4035,PAYLOAD,2024-02-01 20:54:41,15.08844683,0.0001778,53.2204,346.5072,94.3937,265.7258,5.4576e-05,5.81e-06,0.0,0 STARLINK-4035,1 52690U 22053AL  24032.87131938  .00000581  00000-0  54576-4 0  9990,2 52690  53.2204 346.5072 0001778  94.3937 265.7258 15.08844683 94987,6917.866,95.437,540.961,538.501,0.0
52690.0,STARLINK-4035,PAYLOAD,2024-02-02 06:26:59,15.08853139,0.0001633,53.219,344.7199,109.3835,250.7334,0.00012166,1.649e-05,0.0,0 STARLINK-4035,1 52690U 22053AL  24033.26874929  .00001649  00000-0  12166-3 0  9992,2 52690  53.2190 344.7199 0001633 109.3835 250.7334 15.08853139 95048,6917.84,95.437,540.835,538.576,0.0
52690.0,STARLINK-4035,PAYLOAD,2024-02-02 20:45:29,15.08842397,0.0001402,53.2197,342.0348,92.0432,268.0721,-4.5009e-05,-1.004e-05,0.0,0 STARLINK-4035,1 52690U 22053AL  24033.86492260 -.00001004  00000-0 -45009-4 0  9992,2 52690  53.2197 342.0348 0001402  92.0432 268.0721 15.08842397 95504,6917.873,95.437,540.708,538.768,0.0
52690.0,STARLINK-4035,PAYLOAD,2024-02-03 03:07:01,15.08842626,0.0001492,53.2194,340.8556,85.0454,275.0708,-1.4652e-05,-5.21e-06,0.0,0 STARLINK-4035,1 52690U 22053AL  24034.12988190 -.00000521  00000-0 -14652-4 0  9997,2 52690  53.2194 340.8556 0001492  85.0454 275.0708 15.08842626 95174,6917.872,95.437,540.77,538.705,0.0
52690.0,STARLINK-4035,PAYLOAD,2024-02-03 06:17:47,15.08840981,0.0001448,53.2189,340.2606,94.0771,266.0387,4.784e-05,4.74e-06,0.0,0 STARLINK-4035,1 52690U 22053AL  24034.26236106  .00000474  00000-0  47840-4 0  9995,2 52690  53.2189 340.2606 0001448  94.0771 266.0387 15.08840981 95569,6917.877,95.437,540.744,538.741,0.0
52690.0,STARLINK-4035,PAYLOAD,2024-02-04 01:22:25,15.08844479,0.0001344,53.219,336.6907,100.167,259.9474,-3.3991e-05,-8.29e-06,0.0,0 STARLINK-4035,1 52690U 22053AL  24035.05724055 -.00000829  00000-0 -33991-4 0  9996,2 52690  53.2190 336.6907 0001344 100.1670 259.9474 15.08844479 95683,6917.867,95.437,540.661,538.802,0.0
52690.0,STARLINK-4035,PAYLOAD,2024-02-05 01:13:12,15.08840047,0.000146,53.2184,332.2301,101.8241,258.2915,6.6946e-05,7.78e-06,0.0,0 STARLINK-4035,1 52690U 22053AL  24036.05084074  .00000778  00000-0  66946-4 0  9994,2 52690  53.2184 332.2301 0001460 101.8241 258.2915 15.08840047 95462,6917.88,95.438,540.755,538.735,0.0
52690.0,STARLINK-4035,PAYLOAD,2024-02-05 12:20:54,15.08839539,0.0001366,53.2181,330.149,88.5152,271.5996,6.4254e-05,7.35e-06,0.0,0 STARLINK-4035,1 52690U 22053AL  24036.51452236  .00000735  00000-0  64254-4 0  9997,2 52690  53.2181 330.1490 0001366  88.5152 271.5996 15.08839539 95902,6917.882,95.438,540.692,538.802,0.0
52690.0,STARLINK-4035,PAYLOAD,2024-02-06 04:14:45,15.08846731,0.0001661,53.2198,327.1809,105.9409,254.1766,9.4823e-05,1.222e-05,0.0,0 STARLINK-4035,1 52690U 22053AL  24037.17691782  .00001222  00000-0  94823-4 0  9998,2 52690  53.2198 327.1809 0001661 105.9409 254.1766 15.08846731 95631,6917.86,95.437,540.874,538.576,0.0
